[{"OBJECT_NAME":"YAOGAN-35 05A","OBJECT_ID":"2022-109A","EPOCH":"2026-03-07T14:04:58.560960","MEAN_MOTION":15.22860926,"ECCENTRICITY":0.0007542,"INCLINATION":35.0054,"RA_OF_ASC_NODE":257.8287,"ARG_OF_PERICENTER":166.4261,"MEAN_ANOMALY":193.6657,"EPHEMERIS_TYPE":0,"CLASSIFICATION_TYPE":"U","NORAD_CAT_ID":53760,"ELEMENT_SET_NO":999,"REV_AT_EPOCH":19511,"BSTAR":1.0143e-5,"MEAN_MOTION_DOT":2.06e-6,"MEAN_MOTION_DDOT":0},{"OBJECT_NAME":"OBJECT AA","OBJECT_ID":"2025-313AA","EPOCH":"2026-03-09T22:17:16.257696","MEAN_MOTION":15.21952623,"ECCENTRICITY":0.0014221,"INCLINATION":97.4008,"RA_OF_ASC_NODE":145.2054,"ARG_OF_PERICENTER":358.5401,"MEAN_ANOMALY":1.5791,"EPHEMERIS_TYPE":0,"CLASSIFICATION_TYPE":"U","NORAD_CAT_ID":67272,"ELEMENT_SET_NO":999,"REV_AT_EPOCH":1085,"BSTAR":0.00056563346,"MEAN_MOTION_DOT":0.00012874,"MEAN_MOTION_DDOT":0}]
